[{"OBJECT_NAME":"STARLINK-1333","OBJECT_ID":"2020-025BB","EPOCH":"2026-03-09T07:14:06.140544","MEAN_MOTION":15.30221934,"ECCENTRICITY":0.00012184,"INCLINATION":53.1603,"RA_OF_ASC_NODE":79.6121,"ARG_OF_PERICENTER":85.9757,"MEAN_ANOMALY":274.1383,"EPHEMERIS_TYPE":0,"CLASSIFICATION_TYPE":"U","NORAD_CAT_ID":45580,"ELEMENT_SET_NO":999,"REV_AT_EPOCH":32544,"BSTAR":0.00027594344,"MEAN_MOTION_DOT":7.828e-5,"MEAN_MOTION_DDOT":0},{"OBJECT_NAME":"COSMOS 1869","OBJECT_ID":"1987-062A","EPOCH":"2026-03-09T20:30:29.271744","MEAN_MOTION":15.35392408,"ECCENTRICITY":0.00185772,"INCLINATION":82.5127,"RA_OF_ASC_NODE":201.6716,"ARG_OF_PERICENTER":61.4986,"MEAN_ANOMALY":298.8125,"EPHEMERIS_TYPE":0,"CLASSIFICATION_TYPE":"U","NORAD_CAT_ID":18214,"ELEMENT_SET_NO":999,"REV_AT_EPOCH":8931,"BSTAR":0.00042037944,"MEAN_MOTION_DOT":0.00014573,"MEAN_MOTION_DDOT":0}]
